CCSDS_OMM_VERS = 2.0
CREATION_DATE  = 
ORIGINATOR     = 

OBJECT_NAME    = ALOS (DAICHI)
OBJECT_ID      = 2006-002A
CENTER_NAME    = EARTH
REF_FRAME      = TEME
TIME_SYSTEM    = UTC
MEAN_ELEMENT_THEORY = SGP/SGP4

EPOCH          = 2026-02-15T20:29:38.154048
MEAN_MOTION    = 14.69736211
ECCENTRICITY   = .0001825
INCLINATION    = 98.1182
RA_OF_ASC_NODE = 2.9255
ARG_OF_PERICENTER = 58.3346
MEAN_ANOMALY   = 301.8037

EPHEMERIS_TYPE = 0
CLASSIFICATION_TYPE = U
NORAD_CAT_ID   = 28931
ELEMENT_SET_NO = 999
REV_AT_EPOCH   = 7027
BSTAR          = .26771E-3
MEAN_MOTION_DOT = .1546E-4
MEAN_MOTION_DDOT = 0

CCSDS_OMM_VERS = 2.0
CREATION_DATE  = 
ORIGINATOR     = 

OBJECT_NAME    = H-2A R/B
OBJECT_ID      = 2006-002B
CENTER_NAME    = EARTH
REF_FRAME      = TEME
TIME_SYSTEM    = UTC
MEAN_ELEMENT_THEORY = SGP/SGP4

EPOCH          = 2026-02-16T07:00:47.806272
MEAN_MOTION    = 15.15966843
ECCENTRICITY   = .00523417
INCLINATION    = 98.2367
RA_OF_ASC_NODE = 192.4901
ARG_OF_PERICENTER = 314.9377
MEAN_ANOMALY   = 44.7613

EPHEMERIS_TYPE = 0
CLASSIFICATION_TYPE = U
NORAD_CAT_ID   = 28932
ELEMENT_SET_NO = 999
REV_AT_EPOCH   = 9119
BSTAR          = .47302506E-3
MEAN_MOTION_DOT = .9321E-4
MEAN_MOTION_DDOT = 0

CCSDS_OMM_VERS = 2.0
CREATION_DATE  = 
ORIGINATOR     = 

OBJECT_NAME    = RESURS-DK 1
OBJECT_ID      = 2006-021A
CENTER_NAME    = EARTH
REF_FRAME      = TEME
TIME_SYSTEM    = UTC
MEAN_ELEMENT_THEORY = SGP/SGP4

EPOCH          = 2026-02-16T02:38:47.051520
MEAN_MOTION    = 15.12616519
ECCENTRICITY   = .00037474
INCLINATION    = 69.9335
RA_OF_ASC_NODE = 292.8413
ARG_OF_PERICENTER = 193.2331
MEAN_ANOMALY   = 166.8737

EPHEMERIS_TYPE = 0
CLASSIFICATION_TYPE = U
NORAD_CAT_ID   = 29228
ELEMENT_SET_NO = 999
REV_AT_EPOCH   = 8426
BSTAR          = .14803785E-3
MEAN_MOTION_DOT = .2485E-4
MEAN_MOTION_DDOT = 0

CCSDS_OMM_VERS = 2.0
CREATION_DATE  = 
ORIGINATOR     = 

OBJECT_NAME    = CZ-4B R/B
OBJECT_ID      = 2006-046C
CENTER_NAME    = EARTH
REF_FRAME      = TEME
TIME_SYSTEM    = UTC
MEAN_ELEMENT_THEORY = SGP/SGP4

EPOCH          = 2026-02-16T02:27:52.437600
MEAN_MOTION    = 15.16667964
ECCENTRICITY   = .00329132
INCLINATION    = 97.5638
RA_OF_ASC_NODE = 92.0682
ARG_OF_PERICENTER = 345.1739
MEAN_ANOMALY   = 14.8526

EPHEMERIS_TYPE = 0
CLASSIFICATION_TYPE = U
NORAD_CAT_ID   = 29507
ELEMENT_SET_NO = 999
REV_AT_EPOCH   = 5677
BSTAR          = .25889664E-3
MEAN_MOTION_DOT = .5067E-4
MEAN_MOTION_DDOT = 0

CCSDS_OMM_VERS = 2.0
CREATION_DATE  = 
ORIGINATOR     = 

OBJECT_NAME    = CZ-2C R/B
OBJECT_ID      = 2007-010B
CENTER_NAME    = EARTH
REF_FRAME      = TEME
TIME_SYSTEM    = UTC
MEAN_ELEMENT_THEORY = SGP/SGP4

EPOCH          = 2026-02-16T07:24:59.488704
MEAN_MOTION    = 14.20238593
ECCENTRICITY   = .00588116
INCLINATION    = 98.3971
RA_OF_ASC_NODE = 161.6609
ARG_OF_PERICENTER = 357.5905
MEAN_ANOMALY   = 2.4981

EPHEMERIS_TYPE = 0
CLASSIFICATION_TYPE = U
NORAD_CAT_ID   = 31114
ELEMENT_SET_NO = 999
REV_AT_EPOCH   = 97668
BSTAR          = .73443189E-4
MEAN_MOTION_DOT = .118E-5
MEAN_MOTION_DDOT = 0

CCSDS_OMM_VERS = 2.0
CREATION_DATE  = 
ORIGINATOR     = 

OBJECT_NAME    = COSMO-SKYMED 1
OBJECT_ID      = 2007-023A
CENTER_NAME    = EARTH
REF_FRAME      = TEME
TIME_SYSTEM    = UTC
MEAN_ELEMENT_THEORY = SGP/SGP4

EPOCH          = 2026-02-16T06:24:47.769120
MEAN_MOTION    = 14.96360559
ECCENTRICITY   = .00012981
INCLINATION    = 97.8854
RA_OF_ASC_NODE = 238.1302
ARG_OF_PERICENTER = 94.1845
MEAN_ANOMALY   = 265.9525

EPHEMERIS_TYPE = 0
CLASSIFICATION_TYPE = U
NORAD_CAT_ID   = 31598
ELEMENT_SET_NO = 999
REV_AT_EPOCH   = 1170
BSTAR          = .38598499E-3
MEAN_MOTION_DOT = .431E-4
MEAN_MOTION_DDOT = 0

CCSDS_OMM_VERS = 2.0
CREATION_DATE  = 
ORIGINATOR     = 

OBJECT_NAME    = COSMOS 2428
OBJECT_ID      = 2007-029A
CENTER_NAME    = EARTH
REF_FRAME      = TEME
TIME_SYSTEM    = UTC
MEAN_ELEMENT_THEORY = SGP/SGP4

EPOCH          = 2026-02-16T00:18:41.476320
MEAN_MOTION    = 14.12937677
ECCENTRICITY   = .00078677
INCLINATION    = 70.9399
RA_OF_ASC_NODE = 248.8455
ARG_OF_PERICENTER = 301.7590
MEAN_ANOMALY   = 58.2764

EPHEMERIS_TYPE = 0
CLASSIFICATION_TYPE = U
NORAD_CAT_ID   = 31792
ELEMENT_SET_NO = 999
REV_AT_EPOCH   = 96103
BSTAR          = .16443244E-3
MEAN_MOTION_DOT = .259E-5
MEAN_MOTION_DDOT = 0

CCSDS_OMM_VERS = 2.0
CREATION_DATE  = 
ORIGINATOR     = 

OBJECT_NAME    = SL-16 R/B
OBJECT_ID      = 2007-029B
CENTER_NAME    = EARTH
REF_FRAME      = TEME
TIME_SYSTEM    = UTC
MEAN_ELEMENT_THEORY = SGP/SGP4

EPOCH          = 2026-02-15T22:46:53.436576
MEAN_MOTION    = 14.14836202
ECCENTRICITY   = .0002268
INCLINATION    = 70.9743
RA_OF_ASC_NODE = 218.0822
ARG_OF_PERICENTER = 282.7261
MEAN_ANOMALY   = 239.9596

EPHEMERIS_TYPE = 0
CLASSIFICATION_TYPE = U
NORAD_CAT_ID   = 31793
ELEMENT_SET_NO = 999
REV_AT_EPOCH   = 96229
BSTAR          = .72088E-4
MEAN_MOTION_DOT = .91E-6
MEAN_MOTION_DDOT = 0

CCSDS_OMM_VERS = 2.0
CREATION_DATE  = 
ORIGINATOR     = 

OBJECT_NAME    = KORONAS-FOTON
OBJECT_ID      = 2009-003A
CENTER_NAME    = EARTH
REF_FRAME      = TEME
TIME_SYSTEM    = UTC
MEAN_ELEMENT_THEORY = SGP/SGP4

EPOCH          = 2026-02-16T04:03:49.002624
MEAN_MOTION    = 15.42751899
ECCENTRICITY   = .00092433
INCLINATION    = 82.4314
RA_OF_ASC_NODE = 298.2416
ARG_OF_PERICENTER = 229.4014
MEAN_ANOMALY   = 130.6430

EPHEMERIS_TYPE = 0
CLASSIFICATION_TYPE = U
NORAD_CAT_ID   = 33504
ELEMENT_SET_NO = 999
REV_AT_EPOCH   = 94242
BSTAR          = .29902107E-3
MEAN_MOTION_DOT = .13126E-3
MEAN_MOTION_DDOT = 0

CCSDS_OMM_VERS = 2.0
CREATION_DATE  = 
ORIGINATOR     = 

OBJECT_NAME    = CZ-2C R/B
OBJECT_ID      = 2011-030B
CENTER_NAME    = EARTH
REF_FRAME      = TEME
TIME_SYSTEM    = UTC
MEAN_ELEMENT_THEORY = SGP/SGP4

EPOCH          = 2026-02-15T20:35:18.313440
MEAN_MOTION    = 14.81134579
ECCENTRICITY   = .0054098
INCLINATION    = 97.8508
RA_OF_ASC_NODE = 4.5659
ARG_OF_PERICENTER = 62.1441
MEAN_ANOMALY   = 352.1633

EPHEMERIS_TYPE = 0
CLASSIFICATION_TYPE = U
NORAD_CAT_ID   = 37731
ELEMENT_SET_NO = 999
REV_AT_EPOCH   = 78686
BSTAR          = .22492E-3
MEAN_MOTION_DOT = .1738E-4
MEAN_MOTION_DDOT = 0

CCSDS_OMM_VERS = 2.0
CREATION_DATE  = 
ORIGINATOR     = 

OBJECT_NAME    = H-2A R/B
OBJECT_ID      = 2012-025E
CENTER_NAME    = EARTH
REF_FRAME      = TEME
TIME_SYSTEM    = UTC
MEAN_ELEMENT_THEORY = SGP/SGP4

EPOCH          = 2026-02-16T05:52:46.938144
MEAN_MOTION    = 14.94973616
ECCENTRICITY   = .00453646
INCLINATION    = 98.4691
RA_OF_ASC_NODE = 12.5843
ARG_OF_PERICENTER = 24.9734
MEAN_ANOMALY   = 335.3665

EPHEMERIS_TYPE = 0
CLASSIFICATION_TYPE = U
NORAD_CAT_ID   = 38341
ELEMENT_SET_NO = 999
REV_AT_EPOCH   = 74501
BSTAR          = .43396997E-3
MEAN_MOTION_DOT = .4771E-4
MEAN_MOTION_DDOT = 0

CCSDS_OMM_VERS = 2.0
CREATION_DATE  = 
ORIGINATOR     = 

OBJECT_NAME    = SHIJIAN-16 (SJ-16)
OBJECT_ID      = 2013-057A
CENTER_NAME    = EARTH
REF_FRAME      = TEME
TIME_SYSTEM    = UTC
MEAN_ELEMENT_THEORY = SGP/SGP4

EPOCH          = 2026-02-16T05:49:42.642624
MEAN_MOTION    = 14.92257991
ECCENTRICITY   = .0016456
INCLINATION    = 74.9698
RA_OF_ASC_NODE = 225.6859
ARG_OF_PERICENTER = 166.5014
MEAN_ANOMALY   = 193.6618

EPHEMERIS_TYPE = 0
CLASSIFICATION_TYPE = U
NORAD_CAT_ID   = 39358
ELEMENT_SET_NO = 999
REV_AT_EPOCH   = 66830
BSTAR          = .13744447E-3
MEAN_MOTION_DOT = .1377E-4
MEAN_MOTION_DDOT = 0

