ALOS (DAICHI)           
1 28931U 06002A   26046.85391382  .00001546  00000+0  26771-3 0  9999
2 28931  98.1182   2.9255 0001825  58.3346 301.8037 14.69736211 70270
H-2A R/B                
1 28932U 06002B   26047.29221998  .00009321  00000+0  47303-3 0  9997
2 28932  98.2367 192.4901 0052341 314.9377  44.7613 15.15966843 91199
RESURS-DK 1             
1 29228U 06021A   26047.11026680  .00002485  00000+0  14804-3 0  9993
2 29228  69.9335 292.8413 0003747 193.2331 166.8737 15.12616519 84267
CZ-4B R/B               
1 29507U 06046C   26047.10269025  .00005067  00000+0  25890-3 0  9997
2 29507  97.5638  92.0682 0032913 345.1739  14.8526 15.16667964 56772
CZ-2C R/B               
1 31114U 07010B   26047.30902186  .00000118  00000+0  73443-4 0  9990
2 31114  98.3971 161.6609 0058811 357.5905   2.4981 14.20238593976682
COSMO-SKYMED 1          
1 31598U 07023A   26047.26721955  .00004310  00000+0  38598-3 0  9997
2 31598  97.8854 238.1302 0001298  94.1845 265.9525 14.96360559 11700
COSMOS 2428             
1 31792U 07029A   26047.01298005  .00000259  00000+0  16443-3 0  9990
2 31792  70.9399 248.8455 0007867 301.7590  58.2764 14.12937677961038
SL-16 R/B               
1 31793U 07029B   26046.94922959  .00000091  00000+0  72088-4 0  9996
2 31793  70.9743 218.0822 0002268 282.7261 239.9596 14.14836202962296
KORONAS-FOTON           
1 33504U 09003A   26047.16931716  .00013126  00000+0  29902-3 0  9997
2 33504  82.4314 298.2416 0009243 229.4014 130.6430 15.42751899942420
CZ-2C R/B               
1 37731U 11030B   26046.85785085  .00001738  00000+0  22492-3 0  9990
2 37731  97.8508   4.5659 0054098  62.1441 352.1633 14.81134579786864
H-2A R/B                
1 38341U 12025E   26047.24498771  .00004771  00000+0  43397-3 0  9997
2 38341  98.4691  12.5843 0045364  24.9734 335.3665 14.94973616745010
SHIJIAN-16 (SJ-16)      
1 39358U 13057A   26047.24285466  .00001377  00000+0  13744-3 0  9999
2 39358  74.9698 225.6859 0016456 166.5014 193.6618 14.92257991668301
